KUIPER-00102            
1 65140U 25171J   26061.59212569  .00006174  00000+0  83780-3 0  9992
2 65140  51.8981 184.4637 0000634  92.6679 267.4356 14.79951691 31903
KUIPER-00103            
1 65141U 25171K   26061.67462405  .00005776  00000+0  78537-3 0  9999
2 65141  51.8981 201.5906 0002317 123.4807 236.6377 14.79970006 31676
KUIPER-00104            
1 65142U 25171L   26061.75546853  .00006115  00000+0  82923-3 0  9991
2 65142  51.9012 188.6931 0000367  40.1967 319.9023 14.79990652 31864
KUIPER-00105            
1 65143U 25171M   26061.64585713  .00005825  00000+0  78935-3 0  9993
2 65143  51.8998 196.7975 0000416  97.6039 262.4970 14.80099940 31749
KUIPER-00106            
1 65144U 25171N   26061.56776951  .00008476  00000+0  74754-3 0  9991
2 65144  51.8936 187.3324 0007891  77.3798 282.8053 14.97115327 31875
KUIPER-00107            
1 65145U 25171P   26061.66518301  .00006927  00000+0  93611-3 0  9998
2 65145  51.8999 179.1545 0000251  55.2643 304.8343 14.79956473 31991
KUIPER-00108            
1 65146U 25171Q   26061.61783200  .00002036  00000+0  29584-3 0  9991
2 65146  51.9039 191.8761 0001787 153.4540 206.6515 14.79952942 31819
KUIPER-00109            
1 65147U 25171R   26061.65697291  .00006296  00000+0  85381-3 0  9999
2 65147  51.9015 186.6469 0000503  72.1014 288.0003 14.79946797 31883
KUIPER-00110            
1 65148U 25171S   26061.67831356  .00005727  00000+0  78033-3 0  9998
2 65148  51.9001 199.1524 0002019 167.2066 192.8948 14.79892187 31701
KUIPER-00111            
1 65149U 25171T   26061.63800475  .00005553  00000+0  75587-3 0  9991
2 65149  51.8968 204.2310 0001930 133.3609 226.7514 14.79984234 31635
KUIPER-00112            
1 65150U 25171U   26061.55579251  .00005707  00000+0  77651-3 0  9994
2 65150  51.9018 187.1507 0000378 104.0642 256.0363 14.79958764 31860
KUIPER-00114            
1 65151U 25171V   26061.70294460  .00002760  00000+0  39084-3 0  9992
2 65151  51.9000 206.4991 0001414 127.5848 232.5243 14.79935833 31604
KUIPER-00115            
1 65152U 25171W   26061.71090067  .00002257  00000+0  32500-3 0  9998
2 65152  51.8990 198.9486 0000694  90.7760 269.3282 14.79935439 31714
KUIPER-00116            
1 65153U 25171X   26061.67181749  .00005968  00000+0  81050-3 0  9998
2 65153  51.8992 204.1606 0001650 126.1285 233.9830 14.79970243 31639
KUIPER-00118            
1 65154U 25171Y   26061.73658766  .00005656  00000+0  76941-3 0  9991
2 65154  51.8986 206.3303 0000610  84.7718 275.3314 14.79981150 31610
KUIPER-00119            
1 65155U 25171Z   26061.61515140  .00005719  00000+0  77921-3 0  9996
2 65155  51.8993 194.4523 0001392 129.2279 230.8807 14.79895607 31765
KUIPER-00120            
1 65762U 25217A   26062.16668981 -.00021613  00000+0 -28116-2 0  9998
2 65762  51.8975  81.9154 0000455 118.3408 119.6428 14.79985543  5573
